NORAD_CAT_ID,OBJECT_NAME,OBJECT_TYPE,EPOCH,MEAN_MOTION,ECCENTRICITY,INCLINATION,RA_OF_ASC_NODE,ARG_OF_PERICENTER,MEAN_ANOMALY,BSTAR,MEAN_MOTION_DOT,MEAN_MOTION_DDOT,TLE_LINE0,TLE_LINE1,TLE_LINE2,SEMIMAJOR_AXIS,PERIOD,APOGEE,PERIGEE,DECAYED
51129.0,STARLINK-3396,PAYLOAD,2023-01-29 22:28:55,15.08824558,0.0001323,53.2171,353.2248,91.3395,268.7749,-0.00025388,-4.324e-05,0.0,0 STARLINK-3396,1 51129U 22005AB  23029.93674786 -.00004324  00000-0 -25388-3 0  9997,2 51129  53.2171 353.2248 0001323  91.3395 268.7749 15.08824558 57422,6917.928,95.439,540.708,538.877,0.0
51129.0,STARLINK-3396,PAYLOAD,2023-01-30 06:25:50,15.08829304,0.0001164,53.218,351.7386,91.5522,268.5603,-0.00014812,-2.644e-05,0.0,0 STARLINK-3396,1 51129U 22005AB  23030.26795079 -.00002644  00000-0 -14812-3 0  9997,2 51129  53.2180 351.7386 0001164  91.5522 268.5603 15.08829304 58607,6917.913,95.438,540.583,538.973,0.0
51129.0,STARLINK-3396,PAYLOAD,2023-01-30 22:19:42,15.08842285,9.82e-05,53.2166,348.7658,97.76,262.3503,0.00036834,5.58e-05,0.0,0 STARLINK-3396,1 51129U 22005AB  23030.93035016  .00005580  00000-0  36834-3 0  9997,2 51129  53.2166 348.7658 0000982  97.7600 262.3503 15.08842285 57570,6917.873,95.437,540.418,539.059,0.0
51129.0,STARLINK-3396,PAYLOAD,2023-01-31 03:05:51,15.08852319,9.26e-05,53.2164,347.8729,105.735,254.3744,0.00061703,9.549e-05,0.0,0 STARLINK-3396,1 51129U 22005AB  23031.12906744  .00009549  00000-0  61703-3 0  9996,2 51129  53.2164 347.8729 0000926 105.7350 254.3744 15.08852319 58733,6917.843,95.437,540.348,539.067,0.0
51129.0,STARLINK-3396,PAYLOAD,2023-01-31 06:16:37,15.08861458,9.99e-05,53.2163,347.2781,104.4567,255.6536,0.0010778,0.00016917,0.0,0 STARLINK-3396,1 51129U 22005AB  23031.26154730  .00016917  00000-0  10778-2 0  9993,2 51129  53.2163 347.2781 0000999 104.4567 255.6536 15.08861458 57624,6917.815,95.436,540.371,538.989,0.0
51129.0,STARLINK-3396,PAYLOAD,2023-02-01 02:56:37,15.08868524,0.0001181,53.2158,343.4114,102.4576,257.6548,0.00078196,0.00012189,0.0,0 STARLINK-3396,1 51129U 22005AB  23032.12265979  .00012189  00000-0  78196-3 0  9993,2 51129  53.2158 343.4114 0001181 102.4576 257.6548 15.08868524 58883,6917.793,95.436,540.475,538.841,0.0
51129.0,STARLINK-3396,PAYLOAD,2023-02-01 06:07:23,15.08878092,0.0001112,53.2162,342.8171,102.2588,257.8528,0.0011271,0.00017714,0.0,0 STARLINK-3396,1 51129U 22005AB  23032.25513678  .00017714  00000-0  11271-2 0  9998,2 51129  53.2162 342.8171 0001112 102.2588 257.8528 15.08878092 57777,6917.764,95.435,540.398,538.86,0.0
51129.0,STARLINK-3396,PAYLOAD,2023-02-02 02:47:25,15.08844997,0.0001311,53.2168,338.9519,82.5135,277.6006,0.00075379,0.00011731,0.0,0 STARLINK-3396,1 51129U 22005AB  23033.11626193  .00011731  00000-0  75379-3 0  9994,2 51129  53.2168 338.9519 0001311  82.5135 277.6006 15.08844997 59033,6917.865,95.437,540.637,538.823,0.0
51129.0,STARLINK-3396,PAYLOAD,2023-02-02 05:58:11,15.08850749,0.0001138,53.2168,338.3572,76.6356,283.4763,0.0010789,0.00016929,0.0,0 STARLINK-3396,1 51129U 22005AB  23033.24874174  .00016929  00000-0  10789-2 0  9999,2 51129  53.2168 338.3572 0001138  76.6356 283.4763 15.08850749 57925,6917.848,95.437,540.5,538.925,0.0
51129.0,STARLINK-3396,PAYLOAD,2023-02-03 05:48:57,15.08855662,0.0001233,53.2171,333.896,77.0408,283.0722,0.00045928,7.032e-05,0.0,0 STARLINK-3396,1 51129U 22005AB  23034.24233623  .00007032  00000-0  45928-3 0  9997,2 51129  53.2171 333.8960 0001233  77.0408 283.0722 15.08855662 59202,6917.833,95.437,540.55,538.845,0.0
51129.0,STARLINK-3396,PAYLOAD,2023-02-04 04:04:21,15.08846024,0.0001163,53.2178,329.7338,86.0914,274.0211,0.00016524,2.343e-05,0.0,0 STARLINK-3396,1 51129U 22005AB  23035.16969742  .00002343  00000-0  16524-3 0  9997,2 51129  53.2178 329.7338 0001163  86.0914 274.0211 15.08846024 59346,6917.862,95.437,540.532,538.922,0.0
51129.0,STARLINK-3396,PAYLOAD,2023-02-04 19:58:13,15.08831107,0.0001376,53.2178,326.7605,64.4989,295.6145,-1.5024e-05,-5.27e-06,0.0,0 STARLINK-3396,1 51129U 22005AB  23035.83210124 -.00000527  00000-0 -15024-4 0  9993,2 51129  53.2178 326.7605 0001376  64.4989 295.6145 15.08831107 59440,6917.908,95.438,540.724,538.821,0.0
51129.0,STARLINK-3396,PAYLOAD,2023-02-05 05:30:32,15.08840367,0.0001154,53.2174,324.9766,81.2491,278.8631,0.00048323,7.411e-05,0.0,0 STARLINK-3396,1 51129U 22005AB  23036.22954151  .00007411  00000-0  48323-3 0  9996,2 51129  53.2174 324.9766 0001154  81.2491 278.8631 15.08840367 59501,6917.879,95.438,540.543,538.946,0.0
51129.0,STARLINK-3396,PAYLOAD,2023-02-06 02:10:32,15.08874143,0.0001082,53.2176,321.111,84.6424,275.4692,0.0012745,0.00020073,0.0,0 STARLINK-3396,1 51129U 22005AB  23037.09065583  .00020073  00000-0  12745-2 0  9991,2 51129  53.2176 321.1110 0001082  84.6424 275.4692 15.08874143 59631,6917.776,95.435,540.39,538.893,0.0
51129.0,STARLINK-3396,PAYLOAD,2023-02-06 03:45:56,15.08857847,0.000124,53.2177,320.8141,88.1835,271.93,0.00079362,0.00012371,0.0,0 STARLINK-3396,1 51129U 22005AB  23037.15689988  .00012371  00000-0  79362-3 0  9990,2 51129  53.2177 320.8141 0001240  88.1835 271.9300 15.08857847 59643,6917.826,95.436,540.549,538.833,0.0
51129.0,STARLINK-3396,PAYLOAD,2023-02-06 19:39:47,15.08852079,0.0001484,53.2172,317.8408,84.7057,275.4105,0.00040521,6.169e-05,0.0,0 STARLINK-3396,1 51129U 22005AB  23037.81930319  .00006169  00000-0  40521-3 0  9993,2 51129  53.2172 317.8408 0001484  84.7057 275.4105 15.08852079 59743,6917.843,95.437,540.735,538.682,0.0
51129.0,STARLINK-3396,PAYLOAD,2023-02-07 03:36:43,15.08858543,0.0001433,53.2168,316.3538,86.6856,273.43,0.00062767,9.721e-05,0.0,0 STARLINK-3396,1 51129U 22005AB  23038.15049816  .00009721  00000-0  62767-3 0  9997,2 51129  53.2168 316.3538 0001433  86.6856 273.4300 15.08858543 58665,6917.824,95.436,540.68,538.697,0.0
51129.0,STARLINK-3396,PAYLOAD,2023-02-08 01:52:06,15.08865368,0.0001701,53.217,312.1913,74.3219,285.7961,0.00065761,0.00010201,0.0,0 STARLINK-3396,1 51129U 22005AB  23039.07785105  .00010201  00000-0  65761-3 0  9999,2 51129  53.2170 312.1913 0001701  74.3219 285.7961 15.08865368 59937,6917.803,95.436,540.845,538.491,0.0
51129.0,STARLINK-3396,PAYLOAD,2023-02-08 06:38:15,15.08876926,0.0001161,53.2143,311.2959,94.34,265.7725,0.00083192,0.0001299,0.0,0 STARLINK-3396,1 51129U 22005AB  23039.27656359  .00012990  00000-0  83192-3 0  9994,2 51129  53.2143 311.2959 0001161  94.3400 265.7725 15.08876926 58837,6917.768,95.435,540.436,538.829,0.0
51129.0,STARLINK-3396,PAYLOAD,2023-02-09 03:18:16,15.08863092,9.1e-05,53.2159,307.4329,75.6253,284.484,0.0014687,0.00023178,0.0,0 STARLINK-3396,1 51129U 22005AB  23040.13769074  .00023178  00000-0  14687-2 0  9992,2 51129  53.2159 307.4329 0000910  75.6253 284.4840 15.08863092 60098,6917.81,95.436,540.304,539.045,0.0
51129.0,STARLINK-3396,PAYLOAD,2023-02-09 20:47:31,15.08826093,6.43e-05,53.2167,304.1609,91.9228,268.1838,3.8795e-06,-2.26e-06,0.0,0 STARLINK-3396,1 51129U 22005AB  23040.86634246 -.00000226  00000-0  38795-5 0  9993,2 51129  53.2167 304.1609 0000643  91.9228 268.1838 15.08826093 60207,6917.923,95.438,540.233,539.343,0.0
51129.0,STARLINK-3396,PAYLOAD,2023-02-10 03:09:04,15.08836177,8.65e-05,53.2168,302.9694,104.5969,255.5119,0.0005894,9.104e-05,0.0,0 STARLINK-3396,1 51129U 22005AB  23041.13130388  .00009104  00000-0  58940-3 0  9997,2 51129  53.2168 302.9694 0000865 104.5969 255.5119 15.08836177 59111,6917.892,95.438,540.355,539.159,0.0
51129.0,STARLINK-3396,PAYLOAD,2023-02-10 23:49:05,15.0884541,8.97e-05,53.2164,299.1037,111.2429,248.8659,0.00079558,0.00012398,0.0,0 STARLINK-3396,1 51129U 22005AB  23041.99242848  .00012398  00000-0  79558-3 0  9993,2 51129  53.2164 299.1037 0000897 111.2429 248.8659 15.08845410 60370,6917.864,95.437,540.349,539.108,0.0
51129.0,STARLINK-3396,PAYLOAD,2023-02-11 17:18:20,15.08843253,8.26e-05,53.2159,295.8332,109.0089,251.0993,0.00058751,9.076e-05,0.0,0 STARLINK-3396,1 51129U 22005AB  23042.72107085  .00009076  00000-0  58751-3 0  9999,2 51129  53.2159 295.8332 0000826 109.0089 251.0993 15.08843253 60486,6917.87,95.437,540.307,539.164,0.0
51129.0,STARLINK-3396,PAYLOAD,2023-02-12 09:12:11,15.08842999,7.34e-05,53.216,292.8625,92.1762,267.9314,0.00033495,5.047e-05,0.0,0 STARLINK-3396,1 51129U 22005AB  23043.38347139  .00005047  00000-0  33495-3 0  9990,2 51129  53.2160 292.8625 0000734  92.1762 267.9314 15.08842999 60588,6917.871,95.437,540.244,539.228,0.0
51129.0,STARLINK-3396,PAYLOAD,2023-02-13 01:06:04,15.08824813,0.0001434,53.2162,289.8882,87.5717,272.5439,4.3879e-05,4.1e-06,0.0,0 STARLINK-3396,1 51129U 22005AB  23044.04588117  .00000410  00000-0  43879-4 0  9994,2 51129  53.2162 289.8882 0001434  87.5717 272.5439 15.08824813 60683,6917.927,95.439,540.784,538.8,0.0
51129.0,STARLINK-3396,PAYLOAD,2023-02-13 09:02:59,15.08830572,0.0001442,53.2164,288.4018,89.7444,270.3714,3.6693e-06,-2.3e-06,0.0,0 STARLINK-3396,1 51129U 22005AB  23044.37708200 -.00000230  00000-0  36693-5 0  9995,2 51129  53.2164 288.4018 0001442  89.7444 270.3714 15.08830572 59602,6917.909,95.438,540.772,538.777,0.0
51129.0,STARLINK-3396,PAYLOAD,2023-02-14 02:32:13,15.08855887,9.17e-05,53.2149,285.1295,80.6338,279.4758,0.00046037,7.05e-05,0.0,0 STARLINK-3396,1 51129U 22005AB  23045.10571295  .00007050  00000-0  46037-3 0  9996,2 51129  53.2149 285.1295 0000917  80.6338 279.4758 15.08855887 60846,6917.832,95.437,540.331,539.062,0.0
51129.0,STARLINK-3396,PAYLOAD,2023-02-14 08:53:46,15.08837116,0.0001351,53.2151,283.9377,75.269,284.8452,8.7649e-05,1.107e-05,0.0,0 STARLINK-3396,1 51129U 22005AB  23045.37068048  .00001107  00000-0  87649-4 0  9994,2 51129  53.2151 283.9377 0001351  75.2690 284.8452 15.08837116 60880,6917.889,95.438,540.689,538.82,0.0
51129.0,STARLINK-3396,PAYLOAD,2023-02-15 10:19:56,15.0885149,8.08e-05,53.2131,279.1841,85.0728,275.0356,-0.00020332,-3.523e-05,0.0,0 STARLINK-3396,1 51129U 22005AB  23046.43051240 -.00003523  00000-0 -20332-3 0  9999,2 51129  53.2131 279.1841 0000808  85.0728 275.0356 15.08851490 61043,6917.845,95.437,540.269,539.151,0.0
